OBJECT_NAME,OBJECT_ID,EPOCH,MEAN_MOTION,ECCENTRICITY,INCLINATION,RA_OF_ASC_NODE,ARG_OF_PERICENTER,MEAN_ANOMALY,EPHEMERIS_TYPE,CLASSIFICATION_TYPE,NORAD_CAT_ID,ELEMENT_SET_NO,REV_AT_EPOCH,BSTAR,MEAN_MOTION_DOT,MEAN_MOTION_DDOT
SL-14 R/B,1990-018B,2026-06-06T05:02:27.843072,14.82209102,.00167752,82.5201,140.3677,155.6622,204.5388,0,U,20511,999,93569,.50699231E-4,.429E-5,0
HST,1990-037B,2026-06-06T07:41:12.112512,15.30632786,.00018855,28.4714,154.8380,34.6923,325.3796,0,U,20580,999,78690,.2178043E-3,.6872E-4,0
SL-16 R/B,1990-046B,2026-06-06T15:03:13.161024,14.15020420,.0014141,70.9979,111.1256,177.7915,182.3272,0,U,20625,999,86097,.15697E-3,.257E-5,0
COSMOS 2084,1990-055A,2026-06-06T08:55:32.211840,15.06072304,.00055715,62.7909,33.0039,259.1304,100.9169,0,U,20663,999,94967,.1812536E-3,.246E-4,0
SL-6 R/B(2),1990-055D,2026-06-06T16:15:09.591840,15.03968302,.0038977,62.7841,311.1397,3.6864,356.4514,0,U,20666,999,95157,.16353E-3,.2099E-4,0
SL-8 R/B,1990-078B,2026-06-06T12:46:55.679232,14.91925991,.0352993,82.9017,171.2678,74.3044,289.6817,0,U,20775,999,82253,.53935E-3,.19142E-3,0
SL-8 R/B,1991-006B,2026-06-06T15:01:49.238976,13.77505131,.0023195,82.9418,103.8898,142.8174,30.0577,0,U,21088,999,77631,.39051E-4,.54E-6,0
OKEAN-3,1991-039A,2026-06-06T12:04:05.649888,15.05281148,.00146889,82.5167,250.7419,34.5757,325.6422,0,U,21397,999,87839,.17869085E-3,.2587E-4,0
COSMOS 2151,1991-042A,2026-06-06T18:56:54.539232,15.00408970,.0013685,82.4962,357.7163,115.2038,245.0607,0,U,21422,999,87655,.11624E-3,.149E-4,0
SL-14 R/B,1991-042B,2026-06-06T16:29:11.538240,14.81895807,.0015796,82.4921,136.7425,312.5513,47.4366,0,U,21423,999,86625,.52093E-4,.436E-5,0
ERS-1,1991-050A,2026-06-06T19:23:46.553280,14.39510492,.0030819,98.7800,178.2525,298.9835,60.8264,0,U,21574,999,82855,.9427E-4,.249E-5,0
ARIANE 40 R/B,1991-050F,2026-06-06T13:52:41.676096,14.42950936,.0003769,98.1880,206.4078,144.8082,215.3358,0,U,21610,999,83181,.10943E-3,.324E-5,0
INTERCOSMOS 25,1991-086A,2026-06-06T13:08:18.493728,12.12183565,.1484428,82.6057,256.2481,285.3665,58.8577,0,U,21819,999,50745,.15383E-3,.773E-5,0
SL-8 R/B,1992-008B,2026-06-06T14:12:50.393088,13.75974070,.0033313,82.9269,201.6648,245.2491,227.0193,0,U,21876,999,72164,.41523E-4,.55E-6,0
SL-8 R/B,1992-020B,2026-06-06T14:27:35.682048,13.75547874,.0030291,82.9303,87.7189,51.2399,123.1741,0,U,21938,999,71335,.58173E-4,.72E-6,0
USA 81,1992-023A,2026-06-06T12:24:26.815392,14.32395314,.0002731,85.0077,80.1652,94.5024,265.6480,0,U,21949,999,10750,.66646E-4,.2E-5,0
COSMOS 2219,1992-076A,2026-06-06T19:00:44.015040,14.14095586,.0016121,71.0578,191.8031,61.1295,299.1443,0,U,22219,999,73097,-.17357E-4,-.8E-6,0
SL-16 R/B,1992-076B,2026-06-06T20:29:23.986176,14.16872419,.0014409,71.0008,0.5502,312.2124,58.5731,0,U,22220,999,73446,-.72693E-4,-.194E-5,0
COSMOS 2221,1992-080A,2026-06-06T20:12:32.065056,14.96507462,.0012641,82.5036,193.6760,250.4312,109.5545,0,U,22236,999,79412,.12771E-3,.1478E-4,0
SL-16 R/B,1992-093B,2026-06-06T18:48:03.256128,14.15464997,.0004526,71.0202,177.2320,202.6785,157.4138,0,U,22285,999,72576,-.94343E-5,-.66E-6,0
COSMOS 2228,1992-094A,2026-06-06T19:09:01.759392,14.97549230,.0017933,82.5170,151.9943,7.9747,352.1757,0,U,22286,999,78939,.22047E-3,.2606E-4,0
SL-16 R/B,1993-016B,2026-06-06T14:54:12.576096,14.15308578,.0010901,71.0080,28.4009,198.9571,161.1148,0,U,22566,999,71475,.28809E-4,.8E-7,0
COSMOS 2242,1993-024A,2026-06-06T19:40:05.625120,14.96872747,.0016378,82.5180,181.4619,11.7198,348.4402,0,U,22626,999,79372,.14792E-3,.1726E-4,0
SL-16 R/B,1993-059B,2026-06-06T18:16:50.280384,14.17243789,.0014963,70.9883,183.2895,72.1841,288.0914,0,U,22803,999,69215,.79483E-4,.113E-5,0
ARIANE 40 R/B,1993-061H,2026-06-06T14:11:45.700224,14.32903514,.0011139,98.4821,224.6684,27.4389,332.7381,0,U,22830,999,70683,.10002E-3,.23E-5,0
COSMOS 2278,1994-023A,2026-06-06T18:43:06.824640,14.14391700,.0010627,71.0540,348.7010,254.9650,105.0297,0,U,23087,999,65740,.22639E-3,.386E-5,0
SL-16 R/B,1994-023B,2026-06-06T13:46:55.757280,14.15018775,.0003441,70.9996,244.2192,198.2174,161.8825,0,U,23088,999,65866,.8593E-4,.119E-5,0
SL-16 R/B,1994-074B,2026-06-06T19:41:48.041088,14.79493712,.0005207,97.6995,184.9733,297.0070,236.1991,0,U,23343,999,70042,.68872E-4,.466E-5,0
SL-16 R/B,1994-077B,2026-06-06T17:35:43.759968,14.15574109,.0002592,70.9807,165.1562,333.8707,26.2285,0,U,23405,999,62883,-.12734E-3,-.297E-5,0
ARIANE 40+ R/B,1995-021B,2026-06-06T15:25:03.999360,14.39827571,.0005806,98.4412,227.8693,227.9484,255.2585,0,U,23561,999,63204,.10138E-3,.275E-5,0
SL-16 R/B,1995-058B,2026-06-06T19:33:45.014112,14.15505363,.0013344,71.0216,353.1362,334.4552,25.5910,0,U,23705,999,58046,-.54011E-4,-.153E-5,0
